SKYKRAFT-1A             
1 55054U 23001AX  26068.71064616  .00008177  00000+0  30069-3 0  9991
2 55054  97.3349 127.6290 0011277 121.5092 238.7251 15.28083228176529
STARLINK-36095          
1 66871U 25281Z   26068.22834174  .00046695  00000+0  16952-2 0  9993
2 66871  43.0043 346.1916 0002338 259.0875 100.9714 15.27588294 16095
